CCSDS_OMM_VERS = 2.0
CREATION_DATE  = 
ORIGINATOR     = 

OBJECT_NAME    = SL-16 R/B
OBJECT_ID      = 1993-016B
CENTER_NAME    = EARTH
REF_FRAME      = TEME
TIME_SYSTEM    = UTC
MEAN_ELEMENT_THEORY = SGP/SGP4

EPOCH          = 2026-01-24T02:41:04.254720
MEAN_MOTION    = 14.15297099
ECCENTRICITY   = .0009236
INCLINATION    = 71.0087
RA_OF_ASC_NODE = 308.8105
ARG_OF_PERICENTER = 19.6578
MEAN_ANOMALY   = 340.4899

EPHEMERIS_TYPE = 0
CLASSIFICATION_TYPE = U
NORAD_CAT_ID   = 22566
ELEMENT_SET_NO = 999
REV_AT_EPOCH   = 69586
BSTAR          = .23108E-3
MEAN_MOTION_DOT = .402E-5
MEAN_MOTION_DDOT = 0

CCSDS_OMM_VERS = 2.0
CREATION_DATE  = 
ORIGINATOR     = 

OBJECT_NAME    = COSMOS 2242
OBJECT_ID      = 1993-024A
CENTER_NAME    = EARTH
REF_FRAME      = TEME
TIME_SYSTEM    = UTC
MEAN_ELEMENT_THEORY = SGP/SGP4

EPOCH          = 2026-01-24T00:51:49.385664
MEAN_MOTION    = 14.96334713
ECCENTRICITY   = .0018119
INCLINATION    = 82.5209
RA_OF_ASC_NODE = 309.4174
ARG_OF_PERICENTER = 94.4600
MEAN_ANOMALY   = 265.8692

EPHEMERIS_TYPE = 0
CLASSIFICATION_TYPE = U
NORAD_CAT_ID   = 22626
ELEMENT_SET_NO = 999
REV_AT_EPOCH   = 77371
BSTAR          = .32723E-3
MEAN_MOTION_DOT = .3738E-4
MEAN_MOTION_DDOT = 0

CCSDS_OMM_VERS = 2.0
CREATION_DATE  = 
ORIGINATOR     = 

OBJECT_NAME    = SL-16 R/B
OBJECT_ID      = 1993-059B
CENTER_NAME    = EARTH
REF_FRAME      = TEME
TIME_SYSTEM    = UTC
MEAN_ELEMENT_THEORY = SGP/SGP4

EPOCH          = 2026-01-23T22:33:39.409344
MEAN_MOTION    = 14.17223902
ECCENTRICITY   = .0019588
INCLINATION    = 70.9907
RA_OF_ASC_NODE = 105.4989
ARG_OF_PERICENTER = 277.4329
MEAN_ANOMALY   = 82.4569

EPHEMERIS_TYPE = 0
CLASSIFICATION_TYPE = U
NORAD_CAT_ID   = 22803
ELEMENT_SET_NO = 999
REV_AT_EPOCH   = 67319
BSTAR          = -.16916E-4
MEAN_MOTION_DOT = -.82E-6
MEAN_MOTION_DDOT = 0

CCSDS_OMM_VERS = 2.0
CREATION_DATE  = 
ORIGINATOR     = 

OBJECT_NAME    = ARIANE 40 R/B
OBJECT_ID      = 1993-061H
CENTER_NAME    = EARTH
REF_FRAME      = TEME
TIME_SYSTEM    = UTC
MEAN_ELEMENT_THEORY = SGP/SGP4

EPOCH          = 2026-01-24T03:30:45.719136
MEAN_MOTION    = 14.32834701
ECCENTRICITY   = .0011602
INCLINATION    = 98.5009
RA_OF_ASC_NODE = 93.8922
ARG_OF_PERICENTER = 60.0122
MEAN_ANOMALY   = 300.2213

EPHEMERIS_TYPE = 0
CLASSIFICATION_TYPE = U
NORAD_CAT_ID   = 22830
ELEMENT_SET_NO = 999
REV_AT_EPOCH   = 68772
BSTAR          = .22001E-3
MEAN_MOTION_DOT = .557E-5
MEAN_MOTION_DDOT = 0

CCSDS_OMM_VERS = 2.0
CREATION_DATE  = 
ORIGINATOR     = 

OBJECT_NAME    = COSMOS 2278
OBJECT_ID      = 1994-023A
CENTER_NAME    = EARTH
REF_FRAME      = TEME
TIME_SYSTEM    = UTC
MEAN_ELEMENT_THEORY = SGP/SGP4

EPOCH          = 2026-01-24T02:41:36.130272
MEAN_MOTION    = 14.14367196
ECCENTRICITY   = .0006341
INCLINATION    = 71.0534
RA_OF_ASC_NODE = 268.3623
ARG_OF_PERICENTER = 98.5813
MEAN_ANOMALY   = 261.6028

EPHEMERIS_TYPE = 0
CLASSIFICATION_TYPE = U
NORAD_CAT_ID   = 23087
ELEMENT_SET_NO = 999
REV_AT_EPOCH   = 63850
BSTAR          = .32958E-4
MEAN_MOTION_DOT = .16E-6
MEAN_MOTION_DDOT = 0

CCSDS_OMM_VERS = 2.0
CREATION_DATE  = 
ORIGINATOR     = 

OBJECT_NAME    = SL-16 R/B
OBJECT_ID      = 1994-023B
CENTER_NAME    = EARTH
REF_FRAME      = TEME
TIME_SYSTEM    = UTC
MEAN_ELEMENT_THEORY = SGP/SGP4

EPOCH          = 2026-01-24T02:35:50.773920
MEAN_MOTION    = 14.15007132
ECCENTRICITY   = .0004048
INCLINATION    = 71.0000
RA_OF_ASC_NODE = 164.5113
ARG_OF_PERICENTER = 327.0987
MEAN_ANOMALY   = 32.9883

EPHEMERIS_TYPE = 0
CLASSIFICATION_TYPE = U
NORAD_CAT_ID   = 23088
ELEMENT_SET_NO = 999
REV_AT_EPOCH   = 63978
BSTAR          = .23167E-5
MEAN_MOTION_DOT = -.43E-6
MEAN_MOTION_DDOT = 0

CCSDS_OMM_VERS = 2.0
CREATION_DATE  = 
ORIGINATOR     = 

OBJECT_NAME    = SL-16 R/B
OBJECT_ID      = 1994-074B
CENTER_NAME    = EARTH
REF_FRAME      = TEME
TIME_SYSTEM    = UTC
MEAN_ELEMENT_THEORY = SGP/SGP4

EPOCH          = 2026-01-24T00:15:18.840672
MEAN_MOTION    = 14.79349378
ECCENTRICITY   = .0006945
INCLINATION    = 97.7164
RA_OF_ASC_NODE = 56.6272
ARG_OF_PERICENTER = 19.3026
MEAN_ANOMALY   = 5.0034

EPHEMERIS_TYPE = 0
CLASSIFICATION_TYPE = U
NORAD_CAT_ID   = 23343
ELEMENT_SET_NO = 999
REV_AT_EPOCH   = 68064
BSTAR          = .14874E-3
MEAN_MOTION_DOT = .1059E-4
MEAN_MOTION_DDOT = 0

CCSDS_OMM_VERS = 2.0
CREATION_DATE  = 
ORIGINATOR     = 

OBJECT_NAME    = SL-16 R/B
OBJECT_ID      = 1994-077B
CENTER_NAME    = EARTH
REF_FRAME      = TEME
TIME_SYSTEM    = UTC
MEAN_ELEMENT_THEORY = SGP/SGP4

EPOCH          = 2026-01-23T11:18:37.670112
MEAN_MOTION    = 14.15558859
ECCENTRICITY   = .00048432
INCLINATION    = 70.9830
RA_OF_ASC_NODE = 87.6227
ARG_OF_PERICENTER = 252.3755
MEAN_ANOMALY   = 107.6839

EPHEMERIS_TYPE = 0
CLASSIFICATION_TYPE = U
NORAD_CAT_ID   = 23405
ELEMENT_SET_NO = 999
REV_AT_EPOCH   = 60983
BSTAR          = .23141075E-4
MEAN_MOTION_DOT = -.3E-7
MEAN_MOTION_DDOT = 0

CCSDS_OMM_VERS = 2.0
CREATION_DATE  = 
ORIGINATOR     = 

OBJECT_NAME    = ARIANE 40+ R/B
OBJECT_ID      = 1995-021B
CENTER_NAME    = EARTH
REF_FRAME      = TEME
TIME_SYSTEM    = UTC
MEAN_ELEMENT_THEORY = SGP/SGP4

EPOCH          = 2026-01-24T03:09:31.085856
MEAN_MOTION    = 14.39736166
ECCENTRICITY   = .0005615
INCLINATION    = 98.4586
RA_OF_ASC_NODE = 96.1975
ARG_OF_PERICENTER = 275.6272
MEAN_ANOMALY   = 150.6919

EPHEMERIS_TYPE = 0
CLASSIFICATION_TYPE = U
NORAD_CAT_ID   = 23561
ELEMENT_SET_NO = 999
REV_AT_EPOCH   = 61283
BSTAR          = .24819E-3
MEAN_MOTION_DOT = .734E-5
MEAN_MOTION_DDOT = 0

CCSDS_OMM_VERS = 2.0
CREATION_DATE  = 
ORIGINATOR     = 

OBJECT_NAME    = SL-16 R/B
OBJECT_ID      = 1995-058B
CENTER_NAME    = EARTH
REF_FRAME      = TEME
TIME_SYSTEM    = UTC
MEAN_ELEMENT_THEORY = SGP/SGP4

EPOCH          = 2026-01-24T02:41:19.238208
MEAN_MOTION    = 14.15488951
ECCENTRICITY   = .0013171
INCLINATION    = 71.0208
RA_OF_ASC_NODE = 273.8461
ARG_OF_PERICENTER = 197.9009
MEAN_ANOMALY   = 162.1652

EPHEMERIS_TYPE = 0
CLASSIFICATION_TYPE = U
NORAD_CAT_ID   = 23705
ELEMENT_SET_NO = 999
REV_AT_EPOCH   = 56154
BSTAR          = -.62857E-4
MEAN_MOTION_DOT = -.171E-5
MEAN_MOTION_DDOT = 0

CCSDS_OMM_VERS = 2.0
CREATION_DATE  = 
ORIGINATOR     = 

OBJECT_NAME    = SL-16 R/B
OBJECT_ID      = 1996-051B
CENTER_NAME    = EARTH
REF_FRAME      = TEME
TIME_SYSTEM    = UTC
MEAN_ELEMENT_THEORY = SGP/SGP4

EPOCH          = 2026-01-23T23:33:51.565248
MEAN_MOTION    = 14.12403221
ECCENTRICITY   = .0018534
INCLINATION    = 70.7580
RA_OF_ASC_NODE = 269.8718
ARG_OF_PERICENTER = 209.0029
MEAN_ANOMALY   = 151.0062

EPHEMERIS_TYPE = 0
CLASSIFICATION_TYPE = U
NORAD_CAT_ID   = 24298
ELEMENT_SET_NO = 999
REV_AT_EPOCH   = 51533
BSTAR          = .84291E-4
MEAN_MOTION_DOT = .106E-5
MEAN_MOTION_DDOT = 0

CCSDS_OMM_VERS = 2.0
CREATION_DATE  = 
ORIGINATOR     = 

OBJECT_NAME    = ORBVIEW 2 (SEASTAR)
OBJECT_ID      = 1997-037A
CENTER_NAME    = EARTH
REF_FRAME      = TEME
TIME_SYSTEM    = UTC
MEAN_ELEMENT_THEORY = SGP/SGP4

EPOCH          = 2026-01-23T12:42:00.828864
MEAN_MOTION    = 14.35455271
ECCENTRICITY   = .00022603
INCLINATION    = 98.8491
RA_OF_ASC_NODE = 186.6643
ARG_OF_PERICENTER = 168.6387
MEAN_ANOMALY   = 191.4849

EPHEMERIS_TYPE = 0
CLASSIFICATION_TYPE = U
NORAD_CAT_ID   = 24883
ELEMENT_SET_NO = 999
REV_AT_EPOCH   = 50199
BSTAR          = .24366521E-3
MEAN_MOTION_DOT = .654E-5
MEAN_MOTION_DDOT = 0

