SL-16 R/B               
1 22566U 93016B   26024.11185480  .00000402  00000+0  23108-3 0  9994
2 22566  71.0087 308.8105 0009236  19.6578 340.4899 14.15297099695865
COSMOS 2242             
1 22626U 93024A   26024.03598826  .00003738  00000+0  32723-3 0  9991
2 22626  82.5209 309.4174 0018119  94.4600 265.8692 14.96334713773711
SL-16 R/B               
1 22803U 93059B   26023.94003946 -.00000082  00000+0 -16916-4 0  9997
2 22803  70.9907 105.4989 0019588 277.4329  82.4569 14.17223902673191
ARIANE 40 R/B           
1 22830U 93061H   26024.14636249  .00000557  00000+0  22001-3 0  9997
2 22830  98.5009  93.8922 0011602  60.0122 300.2213 14.32834701687726
COSMOS 2278             
1 23087U 94023A   26024.11222373  .00000016  00000+0  32958-4 0  9990
2 23087  71.0534 268.3623 0006341  98.5813 261.6028 14.14367196638509
SL-16 R/B               
1 23088U 94023B   26024.10822655 -.00000043  00000+0  23167-5 0  9993
2 23088  71.0000 164.5113 0004048 327.0987  32.9883 14.15007132639784
SL-16 R/B               
1 23343U 94074B   26024.01063473  .00001059  00000+0  14874-3 0  9998
2 23343  97.7164  56.6272 0006945  19.3026   5.0034 14.79349378680645
SL-16 R/B               
1 23405U 94077B   26023.47126933 -.00000003  00000+0  23141-4 0  9997
2 23405  70.9830  87.6227 0004843 252.3755 107.6839 14.15558859609834
ARIANE 40+ R/B          
1 23561U 95021B   26024.13160979  .00000734  00000+0  24819-3 0  9994
2 23561  98.4586  96.1975 0005615 275.6272 150.6919 14.39736166612831
SL-16 R/B               
1 23705U 95058B   26024.11202822 -.00000171  00000+0 -62857-4 0  9998
2 23705  71.0208 273.8461 0013171 197.9009 162.1652 14.15488951561546
SL-16 R/B               
1 24298U 96051B   26023.98184682  .00000106  00000+0  84291-4 0  9999
2 24298  70.7580 269.8718 0018534 209.0029 151.0062 14.12403221515330
ORBVIEW 2 (SEASTAR)     
1 24883U 97037A   26023.52917626  .00000654  00000+0  24367-3 0  9991
2 24883  98.8491 186.6643 0002260 168.6387 191.4849 14.35455271501996
